STARLINK-31065          
1 58627U 23203K   26068.03322703  .00000121  00000+0  13913-4 0  9994
2 58627  43.0000  70.5804 0000683 259.7162 100.3613 15.27577916123460
2025-313BD              
1 67299U 25313BD  26068.62968741  .00081010  00000+0  27634-2 0  9995
2 67299  97.3970 145.2850 0007287 333.4514  26.6352 15.30002360 10838
